{"spkid": "20678964", "covariance": {"elements": [{"name": "e", "sigma": 1.3967544438667e-08, "units": null, "title": "eccentricity", "value": ".5459352207079736", "label": "e"}, {"units": "au", "title": "perihelion distance", "value": ".9455119946157711", "sigma": 2.95620302626818e-08, "name": "q", "label": "q"}, {"name": "tp", "sigma": 1.19265320189966e-05, "title": "time of perihelion passage", "value": "2458197.743185593950", "units": "TDB", "label": "tp"}, {"label": "node", "name": "om", "sigma": 6.78563642411721e-05, "value": "200.6766832174087", "title": "longitude of the ascending node", "units": "deg"}, {"label": "peri", "name": "w", "sigma": 6.25469188910439e-05, "units": "deg", "title": "argument of perihelion", "value": "342.5461293796743"}, {"label": "i", "title": "inclination", "value": "5.836171804322926", "units": "deg", "name": "i", "sigma": 3.23851290508775e-06}], "data": [["1.950922976461364E-16", "-4.121754769523856E-16", "-3.827539512831111E-14", "-3.027523502059415E-13", "3.021783927239555E-13", "-1.046829116200144E-14", "-1.131221122828008E-22"], ["-4.121754769523856E-16", "8.739136332517119E-16", "9.27009406159657E-14", "6.944170622783804E-13", "-6.83879198043915E-13", "2.477877038856731E-14", "2.706503963927153E-22"], ["-3.827539512831111E-14", "9.27009406159657E-14", "1.422421660001504E-10", "5.88224106483576E-10", "-4.844322384249014E-10", "2.568824030798933E-11", "3.198633477049755E-20"], ["-3.027523502059415E-13", "6.944170622783804E-13", "5.88224106483576E-10", "4.604486168030625E-9", "-4.216200127103999E-9", "5.244005289064869E-11", "9.362719913427818E-20"], ["3.021783927239555E-13", "-6.83879198043915E-13", "-4.844322384249014E-10", "-4.216200127103999E-9", "3.912117062762828E-9", "-3.496173176984945E-11", "-5.571589373840564E-20"], ["-1.046829116200144E-14", "2.477877038856731E-14", "2.568824030798933E-11", "5.244005289064869E-11", "-3.496173176984945E-11", "1.048796583641992E-11", "2.262984277011996E-20"], ["-1.131221122828008E-22", "2.706503963927153E-22", "3.198633477049755E-20", "9.362719913427818E-20", "-5.571589373840564E-20", "2.262984277011996E-20", "8.892432790865344E-28"]], "labels": ["e", "q", "tp", "node", "peri", "i", "A2"], "epoch": "2458257.5"}, "elements": [{"units": null, "title": "eccentricity", "value": ".54575214678675", "name": "e", "sigma": "1.4731E-8", "label": "e"}, {"value": "2.080461313839668", "title": "semi-major axis", "units": "au", "sigma": "9.7999E-9", "name": "a", "label": "a"}, {"label": "q", "title": "perihelion distance", "value": ".9450450855048868", "units": "au", "sigma": "3.1013E-8", "name": "q"}, {"name": "i", "sigma": "3.259E-6", "title": "inclination; angle with respect to x-y ecliptic plane", "value": "5.888408239739527", "units": "deg", "label": "i"}, {"name": "om", "sigma": "6.7168E-5", "title": "longitude of the ascending node", "value": "200.3644361907687", "units": "deg", "label": "node"}, {"label": "peri", "name": "w", "sigma": "6.1837E-5", "units": "deg", "title": "argument of perihelion", "value": "343.065632841078"}, {"label": "M", "name": "ma", "sigma": "6.3756E-6", "title": "mean anomaly", "value": "264.3463456413589", "units": "deg"}, {"title": "time of perihelion passage", "value": "2461491.730569417975", "units": "TDB", "sigma": "2.0633E-5", "name": "tp", "label": "tp"}, {"label": "period", "units": "d", "title": "sidereal orbital period", "value": "1096.068996981295", "name": "per", "sigma": "7.7444E-6"}, {"label": "n", "value": ".3284464764458106", "title": "mean motion", "units": "deg/d", "name": "n", "sigma": "2.3207E-9"}, {"value": "3.21587754217445", "title": "aphelion distance", "units": "au", "name": "ad", "sigma": "1.5148E-8", "label": "Q"}], "epoch": "2461200.5"}